0 FENGYUN 1C DEB
1 31505U 99025BWU 13281.17540830  .00003974  00000-0  20875-2 0  6110
2 31505 101.9258 359.6644 0060351 154.2275 236.1950 14.14072774332719
0 FENGYUN 1C DEB
1 31505U 99025BWU 13282.16613995  .00005903  00000-0  30816-2 0  6124
2 31505 101.9256 000.9822 0060296 151.7847 239.6190 14.14084960332855
0 FENGYUN 1C DEB
1 31505U 99025BWU 13287.18935279  .00004911  00000-0  25689-2 0  6134
2 31505 101.9267 007.6656 0059683 139.6238 251.1488 14.14126327333565
0 FENGYUN 1C DEB
1 31505U 99025BWU 13288.17984013  .00007069  00000-0  36801-2 0  6140
2 31505 101.9270 008.9838 0059610 137.1333 253.5776 14.14138037333707
0 FENGYUN 1C DEB
1 31505U 99025BWU 13294.19322127  .00006313  00000-0  32885-2 0  6151
2 31505 101.9270 016.9876 0058724 122.3334 267.3869 14.14199553334550
